*******************************************************************************
Ephemeris / WWW_USER Mon Mar 24 07:40:37 2025 Pasadena, USA      / Horizons    
*******************************************************************************
Target body name: (2017 SN16)                     {source: JPL#20}
Center body name: Earth (399)                     {source: DE441}
Center-site name: Mauna Kea
*******************************************************************************
Start time      : A.D. 2018-Dec-22 03:58:00.0000 UT      
Stop  time      : A.D. 2018-Dec-22 16:42:00.0000 UT      
Step-size       : 1 minutes
*******************************************************************************
Target pole/equ : undefined
Target radii    : undefined                                                    
Center geodetic : 204.5278, 19.8260847, 4.21024   {E-lon(deg),Lat(deg),Alt(km)}
Center cylindric: 204.5278, 6006.35451, 2151.0229 {E-lon(deg),Dxy(km),Dz(km)}
Center pole/equ : ITRF93                          {East-longitude positive}
Center radii    : 6378.137, 6378.137, 6356.752 km {Equator_a, b, pole_c}       
Target primary  : Sun
Vis. interferer : MOON (R_eq= 1737.400) km        {source: DE441}
Rel. light bend : Sun                             {source: DE441}
Rel. lght bnd GM: 1.3271E+11 km^3/s^2                                          
Small-body perts: Yes                             {source: SB441-N16}
Atmos refraction: NO (AIRLESS)
RA format       : HMS
Time format     : CAL 
Calendar mode   : Mixed Julian/Gregorian
RTS-only print  : NO       
EOP file        : eop.250321.p250617                                           
EOP coverage    : DATA-BASED 1962-JAN-20 TO 2025-MAR-21. PREDICTS-> 2025-JUN-16
Units conversion: 1 au= 149597870.700 km, c= 299792.458 km/s, 1 day= 86400.0 s 
Table cut-offs 1: Elevation (-90.0deg=NO ),Airmass (>38.000=NO), Daylight (YES)
Table cut-offs 2: Solar elongation (  0.0,180.0=NO ),Local Hour Angle( 0.0=NO )
Table cut-offs 3: RA/DEC angular rate (     0.0=NO )                           
*******************************************************************************
Initial IAU76/J2000 heliocentric ecliptic osculating elements (au, days, deg.):
  EPOCH=  2458305.5 ! 2018-Jul-06.00 (TDB)         Residual RMS= .23751        
   EC= .1454884975659386   QR= .8682464985612274   TP= 2458145.5722438502      
   OM= 2.759719470837934   W=  137.1017088998531   IN= 13.38264682844635       
  Equivalent ICRF heliocentric cartesian coordinates (au, au/d):
   X= 5.756755401261899E-01  Y=-7.953424559592890E-01  Z=-6.031561894536019E-01
  VX= 1.332076113263395E-02 VY= 5.454663564585547E-03 VZ= 3.896229736425836E-03
Asteroid physical parameters (km, seconds, rotational period in hours):        
   GM= n.a.                RAD= n.a.               ROTPER= n.a.                
   H= 23.34                G= .150                 B-V= n.a.                   
                           ALBEDO= n.a.            STYP= n.a.                  
*******************************************************************************
 Date__(UT)__HR:MN     R.A._________(ICRF)_________DEC
******************************************************
$$SOE
 2018-Dec-22 06:01  m  20 06 21.380087 +37 57 28.17847
 2018-Dec-22 06:02  m  20 06 21.325650 +37 57 28.41280
 2018-Dec-22 06:03  m  20 06 21.271264 +37 57 28.64707
 2018-Dec-22 06:04  m  20 06 21.216930 +37 57 28.88128
 2018-Dec-22 06:05  m  20 06 21.162647 +37 57 29.11543
 2018-Dec-22 06:06  m  20 06 21.108416 +37 57 29.34952
 2018-Dec-22 06:07  m  20 06 21.054236 +37 57 29.58355
 2018-Dec-22 06:08  m  20 06 21.000107 +37 57 29.81752
 2018-Dec-22 06:09  m  20 06 20.946031 +37 57 30.05144
 2018-Dec-22 06:10  m  20 06 20.892006 +37 57 30.28531
 2018-Dec-22 06:11  m  20 06 20.838032 +37 57 30.51912
 2018-Dec-22 06:12  m  20 06 20.784110 +37 57 30.75289
 2018-Dec-22 06:13  m  20 06 20.730240 +37 57 30.98661
 2018-Dec-22 06:14  m  20 06 20.676421 +37 57 31.22028
 2018-Dec-22 06:15  m  20 06 20.622654 +37 57 31.45391
 2018-Dec-22 06:16  m  20 06 20.568939 +37 57 31.68749
 2018-Dec-22 06:17  m  20 06 20.515276 +37 57 31.92104
 2018-Dec-22 06:18  m  20 06 20.461664 +37 57 32.15454
 2018-Dec-22 06:19  m  20 06 20.408104 +37 57 32.38801
 2018-Dec-22 06:20  m  20 06 20.354595 +37 57 32.62144
 2018-Dec-22 06:21  m  20 06 20.301138 +37 57 32.85484
 2018-Dec-22 06:22  m  20 06 20.247733 +37 57 33.08820
 2018-Dec-22 06:23  m  20 06 20.194380 +37 57 33.32154
 2018-Dec-22 06:24  m  20 06 20.141079 +37 57 33.55484
 2018-Dec-22 06:25  m  20 06 20.087829 +37 57 33.78812
 2018-Dec-22 06:26  m  20 06 20.034631 +37 57 34.02137
 2018-Dec-22 06:27  m  20 06 19.981484 +37 57 34.25460
 2018-Dec-22 06:28  m  20 06 19.928390 +37 57 34.48781
 2018-Dec-22 06:29  m  20 06 19.875347 +37 57 34.72099
 2018-Dec-22 06:30  m  20 06 19.822356 +37 57 34.95416
 2018-Dec-22 06:31  m  20 06 19.769416 +37 57 35.18731
 2018-Dec-22 06:32  m  20 06 19.716529 +37 57 35.42044
 2018-Dec-22 06:33  m  20 06 19.663693 +37 57 35.65356
 2018-Dec-22 06:34  m  20 06 19.610909 +37 57 35.88667
 2018-Dec-22 06:35  m  20 06 19.558176 +37 57 36.11976
 2018-Dec-22 06:36  m  20 06 19.505496 +37 57 36.35285
 2018-Dec-22 06:37  m  20 06 19.452866 +37 57 36.58593
 2018-Dec-22 06:38  m  20 06 19.400289 +37 57 36.81901
 2018-Dec-22 06:39  m  20 06 19.347763 +37 57 37.05208
 2018-Dec-22 06:40  m  20 06 19.295289 +37 57 37.28515
 2018-Dec-22 06:41  m  20 06 19.242867 +37 57 37.51822
 2018-Dec-22 06:42  m  20 06 19.190496 +37 57 37.75129
 2018-Dec-22 06:43  m  20 06 19.138177 +37 57 37.98437
 2018-Dec-22 06:44  m  20 06 19.085909 +37 57 38.21745
 2018-Dec-22 06:45  m  20 06 19.033693 +37 57 38.45053
 2018-Dec-22 06:46  m  20 06 18.981529 +37 57 38.68363
 2018-Dec-22 06:47  m  20 06 18.929416 +37 57 38.91673
 2018-Dec-22 06:48  m  20 06 18.877355 +37 57 39.14984
 2018-Dec-22 06:49  m  20 06 18.825345 +37 57 39.38297
 2018-Dec-22 06:50  m  20 06 18.773387 +37 57 39.61612
 2018-Dec-22 06:51  m  20 06 18.721480 +37 57 39.84927
 2018-Dec-22 06:52  m  20 06 18.669624 +37 57 40.08245
 2018-Dec-22 06:53  m  20 06 18.617820 +37 57 40.31565
 2018-Dec-22 06:54  m  20 06 18.566067 +37 57 40.54887
 2018-Dec-22 06:55  m  20 06 18.514366 +37 57 40.78211
 2018-Dec-22 06:56  m  20 06 18.462716 +37 57 41.01538
 2018-Dec-22 06:57  m  20 06 18.411117 +37 57 41.24867
 2018-Dec-22 06:58  m  20 06 18.359570 +37 57 41.48200
 2018-Dec-22 06:59  m  20 06 18.308074 +37 57 41.71535
 2018-Dec-22 07:00  m  20 06 18.256629 +37 57 41.94873
 2018-Dec-22 07:01  m  20 06 18.205235 +37 57 42.18215
 2018-Dec-22 07:02  m  20 06 18.153892 +37 57 42.41560
 2018-Dec-22 07:03  m  20 06 18.102600 +37 57 42.64909
 2018-Dec-22 07:04  m  20 06 18.051360 +37 57 42.88262
 2018-Dec-22 07:05  m  20 06 18.000170 +37 57 43.11619
 2018-Dec-22 07:06  m  20 06 17.949032 +37 57 43.34980
 2018-Dec-22 07:07  m  20 06 17.897944 +37 57 43.58345
 2018-Dec-22 07:08  m  20 06 17.846907 +37 57 43.81715
 2018-Dec-22 07:09  m  20 06 17.795921 +37 57 44.05089
 2018-Dec-22 07:10  m  20 06 17.744986 +37 57 44.28469
 2018-Dec-22 07:11  m  20 06 17.694102 +37 57 44.51853
 2018-Dec-22 07:12  m  20 06 17.643269 +37 57 44.75243
 2018-Dec-22 07:13  m  20 06 17.592486 +37 57 44.98637
 2018-Dec-22 07:14  m  20 06 17.541753 +37 57 45.22038
 2018-Dec-22 07:15  m  20 06 17.491072 +37 57 45.45444
 2018-Dec-22 07:16  m  20 06 17.440441 +37 57 45.68856
 2018-Dec-22 07:17  m  20 06 17.389860 +37 57 45.92273
 2018-Dec-22 07:18  m  20 06 17.339330 +37 57 46.15697
 2018-Dec-22 07:19  m  20 06 17.288850 +37 57 46.39128
 2018-Dec-22 07:20  m  20 06 17.238421 +37 57 46.62565
 2018-Dec-22 07:21  m  20 06 17.188042 +37 57 46.86008
 2018-Dec-22 07:22  m  20 06 17.137713 +37 57 47.09458
 2018-Dec-22 07:23  m  20 06 17.087434 +37 57 47.32916
 2018-Dec-22 07:24  m  20 06 17.037205 +37 57 47.56380
 2018-Dec-22 07:25  m  20 06 16.987027 +37 57 47.79852
 2018-Dec-22 07:26  m  20 06 16.936898 +37 57 48.03331
 2018-Dec-22 07:27  m  20 06 16.886819 +37 57 48.26818
 2018-Dec-22 07:28  m  20 06 16.836791 +37 57 48.50313
 2018-Dec-22 07:29  m  20 06 16.786812 +37 57 48.73815
 2018-Dec-22 07:30  m  20 06 16.736882 +37 57 48.97326
 2018-Dec-22 07:31  m  20 06 16.687003 +37 57 49.20845
 2018-Dec-22 07:32  m  20 06 16.637173 +37 57 49.44373
 2018-Dec-22 07:33  m  20 06 16.587393 +37 57 49.67909
 2018-Dec-22 07:34  m  20 06 16.537662 +37 57 49.91454
 2018-Dec-22 07:35  m  20 06 16.487980 +37 57 50.15008
 2018-Dec-22 07:36  m  20 06 16.438348 +37 57 50.38571
 2018-Dec-22 07:37  m  20 06 16.388766 +37 57 50.62143
 2018-Dec-22 07:38  m  20 06 16.339232 +37 57 50.85725
 2018-Dec-22 07:39  m  20 06 16.289748 +37 57 51.09317
 2018-Dec-22 07:40  m  20 06 16.240312 +37 57 51.32918
 2018-Dec-22 07:41  m  20 06 16.190926 +37 57 51.56529
 2018-Dec-22 07:42  m  20 06 16.141589 +37 57 51.80150
 2018-Dec-22 07:43  m  20 06 16.092300 +37 57 52.03781
 2018-Dec-22 07:44  m  20 06 16.043060 +37 57 52.27423
 2018-Dec-22 07:45  m  20 06 15.993869 +37 57 52.51075
 2018-Dec-22 07:46  m  20 06 15.944727 +37 57 52.74738
 2018-Dec-22 07:47  s  20 06 15.895633 +37 57 52.98412
 2018-Dec-22 07:48  m  20 06 15.846588 +37 57 53.22097
 2018-Dec-22 07:49  m  20 06 15.797591 +37 57 53.45793
 2018-Dec-22 07:50  m  20 06 15.748642 +37 57 53.69501
 2018-Dec-22 07:51  m  20 06 15.699741 +37 57 53.93220
 2018-Dec-22 07:52  m  20 06 15.650889 +37 57 54.16950
 2018-Dec-22 07:53  m  20 06 15.602085 +37 57 54.40693
 2018-Dec-22 07:54  m  20 06 15.553328 +37 57 54.64447
 2018-Dec-22 07:55  m  20 06 15.504620 +37 57 54.88214
 2018-Dec-22 07:56  m  20 06 15.455959 +37 57 55.11993
 2018-Dec-22 07:57  m  20 06 15.407346 +37 57 55.35784
 2018-Dec-22 07:58  m  20 06 15.358780 +37 57 55.59588
 2018-Dec-22 07:59  m  20 06 15.310263 +37 57 55.83405
 2018-Dec-22 08:00  m  20 06 15.261792 +37 57 56.07235
 2018-Dec-22 08:01  m  20 06 15.213369 +37 57 56.31077
 2018-Dec-22 08:02  m  20 06 15.164993 +37 57 56.54933
 2018-Dec-22 08:03  m  20 06 15.116664 +37 57 56.78803
